H1 CPF 01  gfz 2022 06 21 12  6722 terrasarx 
H2 0702601  6201 31698    2022 06 21 12 59 42 2022 06 26 00 00 42   120 1 1  0 0 0
H9
10 0 59751  46782.000000  0    -937307.869  -5620110.252   3863082.922
10 0 59751  46902.000000  0   -1205711.359  -6035942.422   3085348.593
10 0 59751  47022.000000  0   -1459348.934  -6341677.780   2253286.545
10 0 59751  47142.000000  0   -1691812.314  -6532276.907   1381544.440
10 0 59751  47262.000000  0   -1896999.332  -6604842.298    485475.317
10 0 59751  47382.000000  0   -2069260.638  -6558664.799   -419141.106
10 0 59751  47502.000000  0   -2203537.903  -6395226.150  -1316385.135
10 0 59751  47622.000000  0   -2295490.422  -6118157.562  -2190485.687
10 0 59751  47742.000000  0   -2341607.049  -5733155.625  -3026104.958
10 0 59751  47862.000000  0   -2339300.275  -5247857.087  -3808613.069
10 0 59751  47982.000000  0   -2286979.936  -4671676.288  -4524345.578
10 0 59751  48102.000000  0   -2184105.415  -4015611.487  -5160838.702
10 0 59751  48222.000000  0   -2031215.951  -3292025.727  -5707039.584
10 0 59751  48342.000000  0   -1829938.743  -2514407.025  -6153489.573
10 0 59751  48462.000000  0   -1582974.217  -1697112.089  -6492477.769
10 0 59751  48582.000000  0   -1294059.510   -855099.838  -6718162.267
10 0 59751  48702.000000  0    -967912.111     -3660.003  -6826660.058
10 0 59751  48822.000000  0    -610153.537    841859.049  -6816105.968
10 0 59751  48942.000000  0    -227213.783   1666319.812  -6686681.006
10 0 59751  49062.000000  0     173780.442   2455059.388  -6440609.526
10 0 59751  49182.000000  0     585134.242   3194145.145  -6082127.246
10 0 59751  49302.000000  0     998728.927   3870618.996  -5617416.021
10 0 59751  49422.000000  0    1406177.643   4472724.222  -5054506.808
10 0 59751  49542.000000  0    1798991.427   4990113.910  -4403153.116
10 0 59751  49662.000000  0    2168752.921   5414036.617  -3674672.175
10 0 59751  49782.000000  0    2507293.495   5737493.363  -2881756.675
10 0 59751  49902.000000  0    2806870.838   5955364.212  -2038259.851
10 0 59751  50022.000000  0    3060343.033   6064500.206  -1158955.416
10 0 59751  50142.000000  0    3261333.824   6063777.023   -259276.265
10 0 59751  50262.000000  0    3404384.370   5954107.716    644962.122
10 0 59751  50382.000000  0    3485088.114   5738414.303   1537846.663
10 0 59751  50502.000000  0    3500205.793   5421559.849   2403654.549
10 0 59751  50622.000000  0    3447756.201   5010241.970   3227138.861
10 0 59751  50742.000000  0    3327081.484   4512848.133   3993804.813
10 0 59751  50862.000000  0    3138885.713   3939279.839   4690169.170
10 0 59751  50982.000000  0    2885242.098   3300748.612   5304001.770
10 0 59751  51102.000000  0    2569571.737   2609548.254   5824537.262
10 0 59751  51222.000000  0    2196598.103   1878812.981   6242658.952
10 0 59751  51342.000000  0    1772274.790   1122263.158   6551054.171
10 0 59751  51462.000000  0    1303687.453    353944.332   6744335.292
10 0 59751  51582.000000  0     798933.654   -412032.869   6819127.497
10 0 59751  51702.000000  0     266982.565  -1161751.222   6774125.605
10 0 59751  51822.000000  0    -282484.685  -1881740.033   6610115.441
10 0 59751  51942.000000  0    -839251.233  -2559217.078   6329960.454
10 0 59751  52062.000000  0   -1392753.362  -3182315.840   5938553.258
10 0 59751  52182.000000  0   -1932278.009  -3740294.063   5442735.186
10 0 59751  52302.000000  0   -2447169.797  -4223722.682   4851184.964
10 0 59751  52422.000000  0   -2927044.074  -4624651.744   4174273.893
10 0 59751  52542.000000  0   -3361999.674  -4936748.058   3423887.712
10 0 59751  52662.000000  0   -3742825.168  -5155401.320   2613218.646
10 0 59751  52782.000000  0   -4061194.621  -5277796.736   1756532.737
10 0 59751  52902.000000  0   -4309849.977  -5302952.455    868915.083
10 0 59751  53022.000000  0   -4482764.221  -5231719.546    -34002.164
10 0 59751  53142.000000  0   -4575281.353  -5066745.110   -936323.098
10 0 59751  53262.000000  0   -4584229.057  -4812398.749  -1822177.630
10 0 59751  53382.000000  0   -4508000.359  -4474663.377  -2676009.665
10 0 59751  53502.000000  0   -4346602.836  -4060994.214  -3482856.306
10 0 59751  53622.000000  0   -4101674.872  -3580151.152  -4228612.364
10 0 59751  53742.000000  0   -3776469.599  -3042009.116  -4900275.692
10 0 59751  53862.000000  0   -3375807.215  -2457350.581  -5486169.241
10 0 59751  53982.000000  0   -2905997.374  -1837646.035  -5976135.717
10 0 59751  54102.000000  0   -2374734.538  -1194827.246  -6361703.797
10 0 59751  54222.000000  0   -1790967.227   -541057.422  -6636223.671
10 0 59751  54342.000000  0   -1164744.786    111496.595  -6794969.537
10 0 59751  54462.000000  0    -507046.257    750885.408  -6835211.028
10 0 59751  54582.000000  0     170408.284   1365590.290  -6756255.338
10 0 59751  54702.000000  0     855360.524   1944724.831  -6559458.004
10 0 59751  54822.000000  0    1535230.801   2478223.984  -6248204.462
10 0 59751  54942.000000  0    2197344.649   2957017.129  -5827857.709
10 0 59751  55062.000000  0    2829165.516   3373182.475  -5305674.732
10 0 59751  55182.000000  0    3418529.591   3720079.602  -4690692.211
10 0 59751  55302.000000  0    3953880.746   3992460.357  -3993582.082
10 0 59751  55422.000000  0    4424500.613   4186553.834  -3226476.144
10 0 59751  55542.000000  0    4820728.455   4300123.185  -2402761.413
10 0 59751  55662.000000  0    5134164.428   4332492.192  -1536849.874
10 0 59751  55782.000000  0    5357852.923   4284541.110   -643926.036
10 0 59751  55902.000000  0    5486439.027   4158670.920    260323.247
10 0 59751  56022.000000  0    5516295.310   3958737.375   1159990.116
10 0 59751  56142.000000  0    5445615.792   3689954.540   2039233.831
10 0 59751  56262.000000  0    5274472.840   3358770.137   2882568.808
10 0 59751  56382.000000  0    5004834.750   2972717.235   3675145.949
10 0 59751  56502.000000  0    4640544.666   2540244.946   4403020.693
10 0 59751  56622.000000  0    4187261.749   2070532.385   5053400.018
10 0 59751  56742.000000  0    3652368.357   1573294.177   5614868.496
10 0 59751  56862.000000  0    3044840.671   1058577.602   6077586.944
10 0 59751  56982.000000  0    2375090.587    536557.527   6433458.067
10 0 59751  57102.000000  0    1654782.869     17336.100   6676260.710
10 0 59751  57222.000000  0     896629.691   -489251.414   6801754.445
10 0 59751  57342.000000  0     114163.883   -973822.881   6807749.805
10 0 59751  57462.000000  0    -678503.121  -1427622.429   6694143.105
10 0 59751  57582.000000  0   -1466935.294  -1842678.619   6462917.339
10 0 59751  57702.000000  0   -2236633.217  -2211944.125   6118108.278
10 0 59751  57822.000000  0   -2973298.557  -2529415.144   5665739.924
10 0 59751  57942.000000  0   -3663102.525  -2790231.860   5113728.005
10 0 59751  58062.000000  0   -4292950.820  -2990755.354   4471746.061
10 0 59751  58182.000000  0   -4850737.291  -3128618.988   3751059.792
10 0 59751  58302.000000  0   -5325582.741  -3202753.403   2964332.468
10 0 59751  58422.000000  0   -5708054.548  -3213385.522   2125404.144
10 0 59751  58542.000000  0   -5990362.000  -3162011.439   1249045.690
10 0 59751  58662.000000  0   -6166520.197  -3051341.881    350692.285
10 0 59751  58782.000000  0   -6232478.829  -2885221.768   -553835.795
10 0 59751  58902.000000  0   -6186213.291  -2668526.898  -1448621.219
10 0 59751  59022.000000  0   -6027773.008  -2407038.759  -2317939.622
10 0 59751  59142.000000  0   -5759287.260  -2107302.309  -3146542.408
10 0 59751  59262.000000  0   -5384930.485  -1776470.669  -3919928.219
10 0 59751  59382.000000  0   -4910847.236  -1422140.404  -4624597.168
10 0 59751  59502.000000  0   -4345040.424  -1052181.811  -5248283.531
10 0 59751  59622.000000  0   -3697224.755   -674567.748  -5780163.019
10 0 59751  59742.000000  0   -2978650.155   -297205.542  -6211030.629
10 0 59751  59862.000000  0   -2201900.121     72224.530  -6533448.243
10 0 59751  59982.000000  0   -1380668.348    426420.636  -6741861.532
10 0 59751  60102.000000  0    -529518.361    758598.382  -6832685.028
10 0 59751  60222.000000  0     336369.750   1062617.163  -6804356.437
10 0 59751  60342.000000  0    1201462.360   1333089.735  -6657360.936
10 0 59751  60462.000000  0    2050145.081   1565475.688  -6394226.268
10 0 59751  60582.000000  0    2866999.325   1756157.279  -6019483.739
10 0 59751  60702.000000  0    3637078.650   1902495.272  -5539597.338
10 0 59751  60822.000000  0    4346179.677   2002864.618  -4962862.800
10 0 59751  60942.000000  0    4981106.704   2056670.233  -4299276.285
10 0 59751  61062.000000  0    5529923.136   2064341.274  -3560370.920
10 0 59751  61182.000000  0    5982183.701   2027303.774  -2759024.966
10 0 59751  61302.000000  0    6329144.405   1947932.444  -1909243.637
10 0 59751  61422.000000  0    6563943.186   1829482.236  -1025915.114
10 0 59751  61542.000000  0    6681745.857   1676000.116   -124547.382
10 0 59751  61662.000000  0    6679852.905   1492219.145    779010.683
10 0 59751  61782.000000  0    6557762.990   1283438.385   1668854.334
10 0 59751  61902.000000  0    6317195.705   1055390.872   2529311.821
10 0 59751  62022.000000  0    5962066.584    814102.223   3345229.753
10 0 59751  62142.000000  0    5498418.817    565745.089   4102247.082
10 0 59751  62262.000000  0    4934311.089    316492.291   4787051.984
10 0 59751  62382.000000  0    4279669.042     72373.695   5387616.874
10 0 59751  62502.000000  0    3546100.106   -160862.209   5893409.300
10 0 59751  62622.000000  0    2746677.708   -377876.183   6295571.337
10 0 59751  62742.000000  0    1895702.184   -573853.957   6587068.713
10 0 59751  62862.000000  0    1008440.985   -744608.428   6762808.785
10 0 59751  62982.000000  0     100851.277   -886666.288   6819724.603
10 0 59751  63102.000000  0    -810707.673   -997336.888   6756823.765
10 0 59751  63222.000000  0   -1709768.299  -1074763.103   6575203.852
99
